{
  "type": "FeatureCollection",
  "crs": {
    "type": "name",
    "properties": {
      "name": "urn:ogc:def:crs:EPSG::4326"
    }
  },
  "features": [
    {
      "type": "Feature",
      "properties": {
        "label": "sample analysis area"
      },
      "geometry": {
        "type": "Polygon",
        "coordinates": [
          [
            [9.0, 48.75070997424761],
            [9.0034828274372, 48.75070997424761],
            [9.0034828274372, 48.75301300432218],
            [9.0, 48.75301300432218],
            [9.0, 48.75070997424761]
          ]
        ]
      }
    }
  ]
}
